KUIPER-00615            
1 69774U 26151M   26191.83335647  .00031314  00000+0  85422-3 0  9991
2 69774  51.8774 201.4842 0006228 133.5456 234.0581 15.37154717  1301
KUIPER-00616            
1 69775U 26151N   26191.83335647  .00032277  00000+0  84804-3 0  9994
2 69775  51.8787 201.4173 0003160 110.5633 289.2486 15.38313102  1309
KUIPER-00617            
1 69776U 26151P   26191.83335647  .00032432  00000+0  86907-3 0  9994
2 69776  51.8798 201.4426 0004119 122.6437 263.4798 15.37699575  1304
KUIPER-00619            
1 69777U 26151Q   26191.83335647  .00032393  00000+0  84705-3 0  9995
2 69777  51.8806 201.3926 0001573  53.3408 355.4835 15.38460163  1379
KUIPER-00621            
1 69778U 26151R   26191.83335647  .00032250  00000+0  84909-3 0  9994
2 69778  51.8797 201.4119 0001993 103.3467 298.1887 15.38251109  2123
KUIPER-00622            
1 69779U 26151S   26191.83335647  .00031854  00000+0  87527-3 0  9993
2 69779  51.8734 201.4983 0006952 134.6471 227.1556 15.36916952  1986
KUIPER-00623            
1 69780U 26151T   26191.83335647  .00031543  00000+0  85494-3 0  9991
2 69780  51.8780 201.4641 0005107 121.9073 255.2335 15.37356878  2106
KUIPER-00626            
1 69781U 26151U   26191.83335647  .00028630  00000+0  81841-3 0  9997
2 69781  51.8715 201.5588 0010307 149.1979 182.8331 15.35711804  2339
KUIPER-00627            
1 69782U 26151V   26191.83335647  .00030048  00000+0  86463-3 0  9999
2 69782  51.8687 201.5749 0011405 153.7509 170.2610 15.35467559  1309
KUIPER-00629            
1 69783U 26151W   26191.83335647  .00031658  00000+0  87052-3 0  9993
2 69783  51.8744 201.5024 0007476 134.0377 225.4875 15.36893575  1665
KUIPER-00631            
1 69784U 26151X   26191.83335647  .00031443  00000+0  87095-3 0  9993
2 69784  51.8711 201.5174 0008033 141.3579 211.0933 15.36665336  1300
KUIPER-00634            
1 69785U 26151Y   26191.83335647  .00032165  00000+0  86322-3 0  9998
2 69785  51.8773 201.4511 0003792 123.2071 260.7743 15.37658286  1303
KUIPER-00639            
1 69786U 26151Z   26191.83335647  .00027132  00000+0  76879-3 0  9993
2 69786  51.8685 201.5449 0009808 145.7577 193.1360 15.36021318  1304
KUIPER-00641            
1 69787U 26151AA  26191.83335647  .00037220  00000+0  10757-2 0  9995
2 69787  51.8673 201.5737 0010919 148.5347 175.9024 15.35228839  1977
KUIPER-00644            
1 69788U 26151AB  26191.83335647  .00031050  00000+0  86517-3 0  9999
2 69788  51.8736 201.5286 0008719 143.9479 202.8329 15.36481887  2274
KUIPER-00646            
1 69789U 26151AC  26191.83335647  .00028685  00000+0  81400-3 0  9996
2 69789  51.8699 201.5415 0010014 147.8040 192.6354 15.35943070  1308
KUIPER-00647            
1 69790U 26151AD  26191.83335647  .00027522  00000+0  78969-3 0  9993
2 69790  51.8661 201.5685 0010635 148.6344 178.2710 15.35612669  2116
KUIPER-00662            
1 69791U 26151AE  26191.83335647  .00031204  00000+0  86675-3 0  9999
2 69791  51.8724 201.5228 0008672 138.9083 210.7980 15.36577760  1304
LINK                    
1 69792U 26152A   26191.79095455  .00090510  00000+0  81922-3 0  9991
2 69792  20.5848   1.2730 0023514 294.2343  65.5647 15.65950668  1169
2026-152B               
1 69793U 26152B   26191.73054166  .00041951  00000+0  40138-3 0  9999
2 69793  20.5985   1.8062 0022152 291.2307  68.5774 15.64467828  1153
ISS OBJECT YJ           
1 69794U 98067YJ  26191.40792322  .00022274  00000+0  39913-3 0  9997
2 69794  51.6301 185.1277 0007824 294.4662  65.5510 15.49832001  1251
ISS OBJECT YK           
1 69795U 98067YK  26191.40602809  .00042168  00000+0  73297-3 0  9995
2 69795  51.6301 185.1147 0006910 304.3877  55.6458 15.50360143  1258
ISS OBJECT YL           
1 69796U 98067YL  26191.40637347  .00032360  00000+0  56779-3 0  9990
2 69796  51.6300 185.1173 0008915 296.0075  63.9996 15.50205172  1249
ISS OBJECT YM           
1 69797U 98067YM  26191.34177797  .00032800  00000+0  57464-3 0  9993
2 69797  51.6301 185.4352 0009665 286.9825  73.0104 15.50233141  1225
ISS OBJECT YN           
1 69798U 98067YN  26191.40641795  .00022959  00000+0  40680-3 0  9991
2 69798  51.6301 185.1176 0009314 298.1188  61.8859 15.50120443  1250
ISS OBJECT YP           
1 69799U 98067YP  26191.40616730  .00032776  00000+0  57399-3 0  9996
2 69799  51.6300 185.1152 0009836 287.2373  72.7539 15.50243158  1242
STARLINK-37520          
1 69819U 26154A   26191.83335647 -.01492929  68102-3 -30271-2 0  9992
2 69819  53.1595 315.1766 0000933  51.9761 135.0000 15.98955254  1964
STARLINK-37553          
1 69820U 26154B   26191.83335647 -.01494931  68369-3 -30081-2 0  9993
2 69820  53.1594 315.1721 0001080  54.5287 134.5640 15.99090205  1963
STARLINK-37561          
1 69821U 26154C   26191.83335647 -.01470703  66432-3 -29400-2 0  9997
2 69821  53.1594 315.1677 0001049  47.3180 143.9244 15.99202657  1961
STARLINK-37521          
1 69822U 26154D   26191.83335647 -.01471118  66550-3 -29213-2 0  9992
2 69822  53.1594 315.1642 0001188  59.0426 133.8747 15.99319651  1960
