OBJECT_NAME,OBJECT_ID,EPOCH,MEAN_MOTION,ECCENTRICITY,INCLINATION,RA_OF_ASC_NODE,ARG_OF_PERICENTER,MEAN_ANOMALY,EPHEMERIS_TYPE,CLASSIFICATION_TYPE,NORAD_CAT_ID,ELEMENT_SET_NO,REV_AT_EPOCH,BSTAR,MEAN_MOTION_DOT,MEAN_MOTION_DDOT
KUIPER-00615,2026-151M,2026-07-10T20:00:01.999008,15.37154717,.0006228,51.8774,201.4842,133.5456,234.0581,0,U,69774,999,130,.85422E-3,.31314E-3,0
KUIPER-00616,2026-151N,2026-07-10T20:00:01.999008,15.38313102,.000316,51.8787,201.4173,110.5633,289.2486,0,U,69775,999,130,.84804E-3,.32277E-3,0
KUIPER-00617,2026-151P,2026-07-10T20:00:01.999008,15.37699575,.0004119,51.8798,201.4426,122.6437,263.4798,0,U,69776,999,130,.86907E-3,.32432E-3,0
KUIPER-00619,2026-151Q,2026-07-10T20:00:01.999008,15.38460163,.0001573,51.8806,201.3926,53.3408,355.4835,0,U,69777,999,137,.84705E-3,.32393E-3,0
KUIPER-00621,2026-151R,2026-07-10T20:00:01.999008,15.38251109,.0001993,51.8797,201.4119,103.3467,298.1887,0,U,69778,999,212,.84909E-3,.3225E-3,0
KUIPER-00622,2026-151S,2026-07-10T20:00:01.999008,15.36916952,.0006952,51.8734,201.4983,134.6471,227.1556,0,U,69779,999,198,.87527E-3,.31854E-3,0
KUIPER-00623,2026-151T,2026-07-10T20:00:01.999008,15.37356878,.0005107,51.8780,201.4641,121.9073,255.2335,0,U,69780,999,210,.85494E-3,.31543E-3,0
KUIPER-00626,2026-151U,2026-07-10T20:00:01.999008,15.35711804,.0010307,51.8715,201.5588,149.1979,182.8331,0,U,69781,999,233,.81841E-3,.2863E-3,0
KUIPER-00627,2026-151V,2026-07-10T20:00:01.999008,15.35467559,.0011405,51.8687,201.5749,153.7509,170.2610,0,U,69782,999,130,.86463E-3,.30048E-3,0
KUIPER-00629,2026-151W,2026-07-10T20:00:01.999008,15.36893575,.0007476,51.8744,201.5024,134.0377,225.4875,0,U,69783,999,166,.87052E-3,.31658E-3,0
KUIPER-00631,2026-151X,2026-07-10T20:00:01.999008,15.36665336,.0008033,51.8711,201.5174,141.3579,211.0933,0,U,69784,999,130,.87095E-3,.31443E-3,0
KUIPER-00634,2026-151Y,2026-07-10T20:00:01.999008,15.37658286,.0003792,51.8773,201.4511,123.2071,260.7743,0,U,69785,999,130,.86322E-3,.32165E-3,0
KUIPER-00639,2026-151Z,2026-07-10T20:00:01.999008,15.36021318,.0009808,51.8685,201.5449,145.7577,193.1360,0,U,69786,999,130,.76879E-3,.27132E-3,0
KUIPER-00641,2026-151AA,2026-07-10T20:00:01.999008,15.35228839,.0010919,51.8673,201.5737,148.5347,175.9024,0,U,69787,999,197,.10757E-2,.3722E-3,0
KUIPER-00644,2026-151AB,2026-07-10T20:00:01.999008,15.36481887,.0008719,51.8736,201.5286,143.9479,202.8329,0,U,69788,999,227,.86517E-3,.3105E-3,0
KUIPER-00646,2026-151AC,2026-07-10T20:00:01.999008,15.35943070,.0010014,51.8699,201.5415,147.8040,192.6354,0,U,69789,999,130,.814E-3,.28685E-3,0
KUIPER-00647,2026-151AD,2026-07-10T20:00:01.999008,15.35612669,.0010635,51.8661,201.5685,148.6344,178.2710,0,U,69790,999,211,.78969E-3,.27522E-3,0
KUIPER-00662,2026-151AE,2026-07-10T20:00:01.999008,15.36577760,.0008672,51.8724,201.5228,138.9083,210.7980,0,U,69791,999,130,.86675E-3,.31204E-3,0
LINK,2026-152A,2026-07-10T18:58:58.473120,15.65950668,.0023514,20.5848,1.2730,294.2343,65.5647,0,U,69792,999,116,.81922E-3,.9051E-3,0
2026-152B,2026-152B,2026-07-10T17:31:58.799424,15.64467828,.0022152,20.5985,1.8062,291.2307,68.5774,0,U,69793,999,115,.40138E-3,.41951E-3,0
ISS OBJECT YJ,1998-067YJ,2026-07-10T09:47:24.566208,15.49832001,.00078249,51.6301,185.1277,294.4662,65.5510,0,U,69794,999,125,.39913492E-3,.22274E-3,0
ISS OBJECT YK,1998-067YK,2026-07-10T09:44:40.826976,15.50360143,.00069107,51.6301,185.1147,304.3877,55.6458,0,U,69795,999,125,.73296608E-3,.42168E-3,0
ISS OBJECT YL,1998-067YL,2026-07-10T09:45:10.667808,15.50205172,.0008915,51.6300,185.1173,296.0075,63.9996,0,U,69796,999,124,.56779012E-3,.3236E-3,0
ISS OBJECT YM,1998-067YM,2026-07-10T08:12:09.616608,15.50233141,.00096656,51.6301,185.4352,286.9825,73.0104,0,U,69797,999,122,.5746412E-3,.328E-3,0
ISS OBJECT YN,1998-067YN,2026-07-10T09:45:14.510880,15.50120443,.00093145,51.6301,185.1176,298.1188,61.8859,0,U,69798,999,125,.40679807E-3,.22959E-3,0
ISS OBJECT YP,1998-067YP,2026-07-10T09:44:52.854720,15.50243158,.00098361,51.6300,185.1152,287.2373,72.7539,0,U,69799,999,124,.5739948E-3,.32776E-3,0
STARLINK-37520,2026-154A,2026-07-10T20:00:01.999008,15.98955254,.0000933,53.1595,315.1766,51.9761,135.0000,0,U,69819,999,196,-.30271E-2,-.1492929E-1,.68102E-3
STARLINK-37553,2026-154B,2026-07-10T20:00:01.999008,15.99090205,.000108,53.1594,315.1721,54.5287,134.5640,0,U,69820,999,196,-.30081E-2,-.1494931E-1,.68369E-3
STARLINK-37561,2026-154C,2026-07-10T20:00:01.999008,15.99202657,.0001049,53.1594,315.1677,47.3180,143.9244,0,U,69821,999,196,-.294E-2,-.1470703E-1,.66432E-3
STARLINK-37521,2026-154D,2026-07-10T20:00:01.999008,15.99319651,.0001188,53.1594,315.1642,59.0426,133.8747,0,U,69822,999,196,-.29213E-2,-.1471118E-1,.6655E-3
